start=new Date('2022-05-02T00:00:00.000Z').valueOf();
sats=[{"MEAN_ANOMALY":"95.8789","OBJECT_TYPE":"PAYLOAD","CENTER_NAME":"EARTH","ECCENTRICITY":"0.00022660","REV_AT_EPOCH":"368","REF_FRAME":"TEME","FILE":"3424759","INCLINATION":"53.2156","OBJECT_NAME":"STARLINK-3585","MEAN_MOTION_DDOT":"0.0000000000000","OBJECT_ID":"2022-022Z","GP_ID":"202476741","LAUNCH_DATE":"2022-03-03","EPHEMERIS_TYPE":"0","COUNTRY_CODE":"US","SITE":"AFETR","TLE_LINE2":"2 51875  53.2156 213.2060 0002266  27.6722  95.8789 15.49915783  3681","PERIAPSIS":"415.434","MEAN_MOTION_DOT":"-0.00017477","DECAY_DATE":null,"TLE_LINE1":"1 51875U 22022Z   22121.91668981 -.00017477  00000-0 -30029-3 0  9995","SEMIMAJOR_AXIS":"6795.109","MEAN_ELEMENT_THEORY":"SGP4","MEAN_MOTION":"15.49915783","BSTAR":"-0.00030029000000","RA_OF_ASC_NODE":"213.2060","RCS_SIZE":"LARGE","APOAPSIS":"418.514","ARG_OF_PERICENTER":"27.6722","TIME_SYSTEM":"UTC","CLASSIFICATION_TYPE":"U","EPOCH":"2022-05-01T22:00:01.999584","NORAD_CAT_ID":"51875","PERIOD":"92.908","ELEMENT_SET_NO":"999"},{"PERIAPSIS":"415.580","TLE_LINE2":"2 51876  53.2170 213.2092 0002042  36.5829  65.9320 15.49918030  3689","SITE":"AFETR","COUNTRY_CODE":"US","EPHEMERIS_TYPE":"0","LAUNCH_DATE":"2022-03-03","DECAY_DATE":null,"TLE_LINE1":"1 51876U 22022AA  22121.91668981 -.00016387  00000-0 -28101-3 0  9993","MEAN_MOTION_DOT":"-0.00016387","FILE":"3424759","REF_FRAME":"TEME","REV_AT_EPOCH":"368","ECCENTRICITY":"0.00020420","CENTER_NAME":"EARTH","OBJECT_TYPE":"PAYLOAD","MEAN_ANOMALY":"65.9320","GP_ID":"202476897","OBJECT_ID":"2022-022AA","MEAN_MOTION_DDOT":"0.0000000000000","OBJECT_NAME":"STARLINK-3583","INCLINATION":"53.2170","EPOCH":"2022-05-01T22:00:01.999584","CLASSIFICATION_TYPE":"U","ELEMENT_SET_NO":"999","PERIOD":"92.908","NORAD_CAT_ID":"51876","MEAN_MOTION":"15.49918030","MEAN_ELEMENT_THEORY":"SGP4","SEMIMAJOR_AXIS":"6795.103","TIME_SYSTEM":"UTC","ARG_OF_PERICENTER":"36.5829","APOAPSIS":"418.355","RCS_SIZE":"LARGE","RA_OF_ASC_NODE":"213.2092","BSTAR":"-0.00028101000000"},{"SITE":"AFETR","TLE_LINE2":"2 51877  53.2129 210.6281 0003076  13.9638 266.5768 15.73202957  3710","PERIAPSIS":"347.682","COUNTRY_CODE":"US","EPHEMERIS_TYPE":"0","LAUNCH_DATE":"2022-03-03","DECAY_DATE":null,"TLE_LINE1":"1 51877U 22022AB  22121.91668981 -.00058329  00000-0 -41387-3 0  9997","MEAN_MOTION_DOT":"-0.00058329","FILE":"3424759","REF_FRAME":"TEME","ECCENTRICITY":"0.00030760","REV_AT_EPOCH":"371","OBJECT_TYPE":"PAYLOAD","MEAN_ANOMALY":"266.5768","CENTER_NAME":"EARTH","GP_ID":"202476332","OBJECT_ID":"2022-022AB","OBJECT_NAME":"STARLINK-3556","MEAN_MOTION_DDOT":"0.0000000000000","INCLINATION":"53.2129","EPOCH":"2022-05-01T22:00:01.999584","CLASSIFICATION_TYPE":"U","PERIOD":"91.533","ELEMENT_SET_NO":"999","NORAD_CAT_ID":"51877","MEAN_ELEMENT_THEORY":"SGP4","MEAN_MOTION":"15.73202957","SEMIMAJOR_AXIS":"6727.887","TIME_SYSTEM":"UTC","ARG_OF_PERICENTER":"13.9638","RCS_SIZE":"LARGE","APOAPSIS":"351.821","BSTAR":"-0.00041387000000","RA_OF_ASC_NODE":"210.6281"},{"MEAN_MOTION_DOT":"-0.00017146","DECAY_DATE":null,"TLE_LINE1":"1 51878U 22022AC  22121.91668981 -.00017146  00000-0 -29482-3 0  9992","LAUNCH_DATE":"2022-03-03","SITE":"AFETR","TLE_LINE2":"2 51878  53.2168 213.2071 0001860  34.7475  83.2986 15.49880497 10515","PERIAPSIS":"415.813","COUNTRY_CODE":"US","EPHEMERIS_TYPE":"0","OBJECT_NAME":"STARLINK-3575","MEAN_MOTION_DDOT":"0.0000000000000","INCLINATION":"53.2168","GP_ID":"202449147","OBJECT_ID":"2022-022AC","ECCENTRICITY":"0.00018600","REV_AT_EPOCH":"1051","MEAN_ANOMALY":"83.2986","OBJECT_TYPE":"PAYLOAD","CENTER_NAME":"EARTH","FILE":"3424649","REF_FRAME":"TEME","PERIOD":"92.910","ELEMENT_SET_NO":"999","NORAD_CAT_ID":"51878","EPOCH":"2022-05-01T22:00:01.999584","CLASSIFICATION_TYPE":"U","BSTAR":"-0.00029482000000","RA_OF_ASC_NODE":"213.2071","ARG_OF_PERICENTER":"34.7475","TIME_SYSTEM":"UTC","RCS_SIZE":"LARGE","APOAPSIS":"418.341","SEMIMAJOR_AXIS":"6795.212","MEAN_ELEMENT_THEORY":"SGP4","MEAN_MOTION":"15.49880497"},{"REF_FRAME":"TEME","FILE":"3424759","OBJECT_TYPE":"PAYLOAD","MEAN_ANOMALY":"264.2129","CENTER_NAME":"EARTH","ECCENTRICITY":"0.00026780","REV_AT_EPOCH":"371","OBJECT_ID":"2022-022AD","GP_ID":"202476413","INCLINATION":"53.2129","OBJECT_NAME":"STARLINK-3572","MEAN_MOTION_DDOT":"0.0000000000000","COUNTRY_CODE":"US","EPHEMERIS_TYPE":"0","SITE":"AFETR","TLE_LINE2":"2 51879  53.2129 210.6267 0002678  17.6105 264.2129 15.73187002  3712","PERIAPSIS":"347.995","LAUNCH_DATE":"2022-03-03","TLE_LINE1":"1 51879U 22022AD  22121.91668981 -.00034875  00000-0 -24517-3 0  9995","DECAY_DATE":null,"MEAN_MOTION_DOT":"-0.00034875","MEAN_ELEMENT_THEORY":"SGP4","MEAN_MOTION":"15.73187002","SEMIMAJOR_AXIS":"6727.932","RCS_SIZE":"LARGE","APOAPSIS":"351.599","ARG_OF_PERICENTER":"17.6105","TIME_SYSTEM":"UTC","BSTAR":"-0.00024517000000","RA_OF_ASC_NODE":"210.6267","CLASSIFICATION_TYPE":"U","EPOCH":"2022-05-01T22:00:01.999584","NORAD_CAT_ID":"51879","PERIOD":"91.534","ELEMENT_SET_NO":"999"},{"MEAN_MOTION_DOT":"-0.00036537","TLE_LINE1":"1 51880U 22022AE  22121.91668981 -.00036537  00000-0 -63883-3 0  9993","DECAY_DATE":null,"LAUNCH_DATE":"2022-03-03","PERIAPSIS":"415.901","TLE_LINE2":"2 51880  53.2141 213.2223 0001725  44.6298  14.3256 15.49882006  3684","SITE":"AFETR","COUNTRY_CODE":"US","EPHEMERIS_TYPE":"0","MEAN_MOTION_DDOT":"0.0000000000000","OBJECT_NAME":"STARLINK-3566","INCLINATION":"53.2141","GP_ID":"202476568","OBJECT_ID":"2022-022AE","REV_AT_EPOCH":"368","ECCENTRICITY":"0.00017250","CENTER_NAME":"EARTH","OBJECT_TYPE":"PAYLOAD","MEAN_ANOMALY":"14.3256","FILE":"3424759","REF_FRAME":"TEME","ELEMENT_SET_NO":"999","PERIOD":"92.910","NORAD_CAT_ID":"51880","EPOCH":"2022-05-01T22:00:01.999584","CLASSIFICATION_TYPE":"U","RA_OF_ASC_NODE":"213.2223","BSTAR":"-0.00063883000000","TIME_SYSTEM":"UTC","ARG_OF_PERICENTER":"44.6298","APOAPSIS":"418.245","RCS_SIZE":"LARGE","SEMIMAJOR_AXIS":"6795.208","MEAN_MOTION":"15.49882006","MEAN_ELEMENT_THEORY":"SGP4"},{"CLASSIFICATION_TYPE":"U","EPOCH":"2022-05-01T22:00:01.999584","NORAD_CAT_ID":"51881","PERIOD":"91.534","ELEMENT_SET_NO":"999","SEMIMAJOR_AXIS":"6727.926","MEAN_ELEMENT_THEORY":"SGP4","MEAN_MOTION":"15.73189187","BSTAR":"0.00021936000000","RA_OF_ASC_NODE":"210.6225","RCS_SIZE":"LARGE","APOAPSIS":"351.750","TIME_SYSTEM":"UTC","ARG_OF_PERICENTER":"16.7430","LAUNCH_DATE":"2022-03-03","EPHEMERIS_TYPE":"0","COUNTRY_CODE":"US","SITE":"AFETR","PERIAPSIS":"347.832","TLE_LINE2":"2 51881  53.2127 210.6225 0002912  16.7430 266.3402 15.73189187 10608","MEAN_MOTION_DOT":"0.00030266","DECAY_DATE":null,"TLE_LINE1":"1 51881U 22022AF  22121.91668981  .00030266  00000-0  21936-3 0  9998","OBJECT_TYPE":"PAYLOAD","MEAN_ANOMALY":"266.3402","CENTER_NAME":"EARTH","ECCENTRICITY":"0.00029120","REV_AT_EPOCH":"1060","REF_FRAME":"TEME","FILE":"3424651","INCLINATION":"53.2127","OBJECT_NAME":"STARLINK-3504","MEAN_MOTION_DDOT":"0.0000000000000","OBJECT_ID":"2022-022AF","GP_ID":"202449171"},{"LAUNCH_DATE":"2022-03-03","SITE":"AFETR","TLE_LINE2":"2 51882  53.2146 210.6331 0002727  11.9636 269.1868 15.73189895  3714","PERIAPSIS":"347.954","EPHEMERIS_TYPE":"0","COUNTRY_CODE":"US","MEAN_MOTION_DOT":"0.00026863","DECAY_DATE":null,"TLE_LINE1":"1 51882U 22022AG  22121.91668981  .00026863  00000-0  19527-3 0  9990","ECCENTRICITY":"0.00027270","REV_AT_EPOCH":"371","MEAN_ANOMALY":"269.1868","OBJECT_TYPE":"PAYLOAD","CENTER_NAME":"EARTH","FILE":"3424759","REF_FRAME":"TEME","OBJECT_NAME":"STARLINK-3570","MEAN_MOTION_DDOT":"0.0000000000000","INCLINATION":"53.2146","GP_ID":"202476495","OBJECT_ID":"2022-022AG","EPOCH":"2022-05-01T22:00:01.999584","CLASSIFICATION_TYPE":"U","PERIOD":"91.534","ELEMENT_SET_NO":"999","NORAD_CAT_ID":"51882","SEMIMAJOR_AXIS":"6727.924","MEAN_ELEMENT_THEORY":"SGP4","MEAN_MOTION":"15.73189895","BSTAR":"0.00019527000000","RA_OF_ASC_NODE":"210.6331","ARG_OF_PERICENTER":"11.9636","TIME_SYSTEM":"UTC","RCS_SIZE":"LARGE","APOAPSIS":"351.624"},{"ELEMENT_SET_NO":"999","PERIOD":"91.533","NORAD_CAT_ID":"51883","EPOCH":"2022-05-01T22:00:01.999584","CLASSIFICATION_TYPE":"U","TIME_SYSTEM":"UTC","ARG_OF_PERICENTER":"14.0129","APOAPSIS":"351.601","RCS_SIZE":"LARGE","RA_OF_ASC_NODE":"210.6198","BSTAR":"-0.00010347000000","MEAN_MOTION":"15.73197023","MEAN_ELEMENT_THEORY":"SGP4","SEMIMAJOR_AXIS":"6727.904","TLE_LINE1":"1 51883U 22022AH  22121.91668981 -.00015118  00000-0 -10347-3 0  9995","DECAY_DATE":null,"MEAN_MOTION_DOT":"-0.00015118","TLE_LINE2":"2 51883  53.2126 210.6198 0002723  14.0129 270.3867 15.73197023  3716","PERIAPSIS":"347.937","SITE":"AFETR","EPHEMERIS_TYPE":"0","COUNTRY_CODE":"US","LAUNCH_DATE":"2022-03-03","GP_ID":"202476742","OBJECT_ID":"2022-022AH","MEAN_MOTION_DDOT":"0.0000000000000","OBJECT_NAME":"STARLINK-3576","INCLINATION":"53.2126","FILE":"3424759","REF_FRAME":"TEME","REV_AT_EPOCH":"371","ECCENTRICITY":"0.00027230","CENTER_NAME":"EARTH","MEAN_ANOMALY":"270.3867","OBJECT_TYPE":"PAYLOAD"},{"FILE":"3424759","REF_FRAME":"TEME","ECCENTRICITY":"0.00028720","REV_AT_EPOCH":"371","MEAN_ANOMALY":"270.9940","OBJECT_TYPE":"PAYLOAD","CENTER_NAME":"EARTH","GP_ID":"202476898","OBJECT_ID":"2022-022AJ","OBJECT_NAME":"STARLINK-3577","MEAN_MOTION_DDOT":"0.0000000000000","INCLINATION":"53.2127","SITE":"AFETR","TLE_LINE2":"2 51884  53.2127 210.6238 0002872  11.4746 270.9940 15.73192956  3712","PERIAPSIS":"347.848","EPHEMERIS_TYPE":"0","COUNTRY_CODE":"US","LAUNCH_DATE":"2022-03-03","TLE_LINE1":"1 51884U 22022AJ  22121.91668981 -.00044191  00000-0 -31210-3 0  9991","DECAY_DATE":null,"MEAN_MOTION_DOT":"-0.00044191","MEAN_ELEMENT_THEORY":"SGP4","MEAN_MOTION":"15.73192956","SEMIMAJOR_AXIS":"6727.915","TIME_SYSTEM":"UTC","ARG_OF_PERICENTER":"11.4746","RCS_SIZE":"LARGE","APOAPSIS":"351.713","BSTAR":"-0.00031210000000","RA_OF_ASC_NODE":"210.6238","EPOCH":"2022-05-01T22:00:01.999584","CLASSIFICATION_TYPE":"U","PERIOD":"91.534","ELEMENT_SET_NO":"999","NORAD_CAT_ID":"51884"}];
